OBJECT_NAME,OBJECT_ID,EPOCH,MEAN_MOTION,ECCENTRICITY,INCLINATION,RA_OF_ASC_NODE,ARG_OF_PERICENTER,MEAN_ANOMALY,EPHEMERIS_TYPE,CLASSIFICATION_TYPE,NORAD_CAT_ID,ELEMENT_SET_NO,REV_AT_EPOCH,BSTAR,MEAN_MOTION_DOT,MEAN_MOTION_DDOT
ONEWEB-0023,2020-008F,2026-07-01T21:14:44.599488,13.10374674,.00019009,87.8824,33.3372,80.8065,279.3277,0,U,45136,999,31000,.16020639E-2,.572E-5,0
ONEWEB-0024,2020-008G,2026-07-01T20:34:34.075776,13.10373338,.00017625,87.8835,33.3357,87.8315,272.3014,0,U,45137,999,31016,-.10168405E-2,-.342E-5,0
ONEWEB-0025,2020-008H,2026-07-01T20:34:10.625088,13.10374244,.0002297,87.8832,33.3261,85.2113,274.9277,0,U,45138,999,31049,-.83073646E-3,-.277E-5,0
ONEWEB-0026,2020-008J,2026-07-01T19:22:51.200256,13.11416822,.00019471,87.8878,18.1572,92.1300,268.0051,0,U,45139,999,31302,-.15495479E-2,-.536E-5,0
ONEWEB-0028,2020-008K,2026-07-01T22:27:11.767104,13.11413688,.00015728,87.8871,18.1391,70.4059,289.7238,0,U,45140,999,31055,.55019977E-4,.32E-6,0
ONEWEB-0032,2020-008L,2026-07-01T19:33:33.013152,13.10369107,.00017506,87.8816,33.3559,69.9615,290.1700,0,U,45141,999,31021,.13701769E-2,.491E-5,0
ONEWEB-0033,2020-008M,2026-07-01T22:36:33.611616,13.10375083,.00019863,87.8821,33.3373,100.2798,259.8554,0,U,45142,999,31014,-.76854454E-4,-.14E-6,0
ONEWEB-0035,2020-008N,2026-07-01T21:16:08.260608,13.10371410,.00018897,87.8817,33.3414,88.0951,272.0393,0,U,45143,999,30986,.12900266E-2,.463E-5,0
ONEWEB-0036,2020-008P,2026-07-01T11:34:12.164736,13.10370844,.00018207,87.8838,33.4373,78.7456,281.3876,0,U,45144,999,31023,.49599449E-3,.186E-5,0
ONEWEB-0038,2020-008Q,2026-07-01T19:37:42.544992,13.11418571,.00009114,87.8895,18.1658,155.8774,204.2397,0,U,45145,999,31224,-.23011782E-3,-.69E-6,0
ONEWEB-0039,2020-008R,2026-07-01T22:41:27.681792,13.10376199,.00015472,87.8823,33.3270,68.9840,291.1452,0,U,45146,999,31009,.10677778E-2,.385E-5,0
ONEWEB-0040,2020-008S,2026-07-01T11:31:55.805664,13.10374726,.00020279,87.8821,33.4304,78.5279,281.6076,0,U,45147,999,30973,.27879092E-3,.11E-5,0
ONEWEB-0043,2020-008U,2026-07-01T20:44:20.669568,13.10371247,.00015846,87.8828,33.3427,69.2542,290.8755,0,U,45149,999,31010,-.48687396E-3,-.157E-5,0
ONEWEB-0044,2020-008V,2026-07-01T19:35:49.141536,13.10371863,.00018134,87.8823,33.3531,80.7468,279.3865,0,U,45150,999,31039,.12925699E-2,.464E-5,0
ONEWEB-0045,2020-008W,2026-07-01T19:30:10.928736,13.11417488,.00017067,87.8889,18.1488,86.5795,273.5528,0,U,45151,999,31232,-.13330804E-2,-.46E-5,0
ONEWEB-0047,2020-008X,2026-07-01T21:15:44.618976,13.10371114,.00017167,87.8826,33.3386,91.8184,268.3140,0,U,45152,999,31012,.19415344E-2,.69E-5,0
ONEWEB-0048,2020-008Y,2026-07-01T21:08:37.040064,13.10375870,.00017831,87.8819,33.3594,87.6851,272.4480,0,U,45153,999,30973,.2162587E-2,.768E-5,0
ONEWEB-0049,2020-008Z,2026-07-01T21:13:17.318208,13.10376069,.00021001,87.8815,33.3481,77.0402,283.0960,0,U,45154,999,30995,.20256593E-2,.72E-5,0
ONEWEB-0051,2020-008AA,2026-07-01T19:27:45.157248,13.11418807,.00018302,87.8881,18.1556,87.8500,272.2837,0,U,45155,999,31300,-.11846981E-2,-.407E-5,0
ONEWEB-0052,2020-008AB,2026-07-01T19:53:06.383904,13.10370519,.00020021,87.8818,33.3463,75.9568,284.1782,0,U,45156,999,30985,-.9376222E-3,-.315E-5,0
ONEWEB-0053,2020-008AC,2026-07-01T20:39:15.967872,13.10374551,.00017891,87.8818,33.3602,70.1197,290.0123,0,U,45157,999,30983,-.35118178E-3,-.11E-5,0
ONEWEB-0054,2020-008AD,2026-07-01T19:40:41.681568,13.10371488,.00018899,87.8825,33.3527,84.9811,275.1532,0,U,45158,999,30994,.78917257E-3,.288E-5,0
ONEWEB-0056,2020-008AE,2026-07-01T22:38:48.227136,13.10374450,.00020922,87.8829,33.3214,86.4030,273.7337,0,U,45159,999,31011,.79184966E-3,.289E-5,0
ONEWEB-0057,2020-008AF,2026-07-01T21:13:42.091680,13.10371129,.00018903,87.8822,33.3451,69.1662,290.9668,0,U,45160,999,31027,.20542283E-2,.73E-5,0
ONEWEB-0058,2020-008AG,2026-07-01T20:54:41.793984,13.10375961,.00016946,87.8819,33.3528,91.7863,268.3459,0,U,45161,999,31034,.12899661E-2,.463E-5,0
ONEWEB-0059,2020-008AH,2026-07-01T22:39:13.394592,13.10372749,.00016293,87.8819,33.3375,78.2785,281.8525,0,U,45162,999,31025,.65176895E-3,.24E-5,0
ONEWEB-0062,2020-008AJ,2026-07-01T19:33:08.367552,13.10371124,.00018572,87.8824,33.3517,96.1534,263.9805,0,U,45163,999,31010,.13674698E-2,.49E-5,0
ONEWEB-0065,2020-008AK,2026-07-01T20:21:59.423616,13.10375338,.00019574,87.8824,33.3530,77.4507,282.6840,0,U,45164,999,30980,-.18366657E-2,-.628E-5,0
STARLINK-1143,2020-012B,2026-07-01T19:15:59.826528,16.00584507,.00045003,53.0299,117.8598,89.5629,270.5916,0,U,45179,999,35395,.67406363E-3,.363506E-2,.67602187E-4
STARLINK-1202,2020-012F,2026-07-01T19:40:41.562336,15.36733985,.00041513,53.1523,227.2619,348.2697,11.8209,0,U,45183,999,35245,.10488141E-2,.37999E-3,0
