ONEWEB-0023             
1 45136U 20008F   26182.88523842  .00000572  00000+0  16021-2 0  9993
2 45136  87.8824  33.3372 0001900  80.8065 279.3277 13.10374674310003
ONEWEB-0024             
1 45137U 20008G   26182.85733884 -.00000342  00000+0 -10168-2 0  9993
2 45137  87.8835  33.3357 0001762  87.8315 272.3014 13.10373338310165
ONEWEB-0025             
1 45138U 20008H   26182.85706742 -.00000277  00000+0 -83074-3 0  9991
2 45138  87.8832  33.3261 0002297  85.2113 274.9277 13.10374244310491
ONEWEB-0026             
1 45139U 20008J   26182.80753704 -.00000536  00000+0 -15495-2 0  9996
2 45139  87.8878  18.1572 0001947  92.1300 268.0051 13.11416822313020
ONEWEB-0028             
1 45140U 20008K   26182.93555286  .00000032  00000+0  55020-4 0  9996
2 45140  87.8871  18.1391 0001572  70.4059 289.7238 13.11413688310557
ONEWEB-0032             
1 45141U 20008L   26182.81496543  .00000491  00000+0  13702-2 0  9992
2 45141  87.8816  33.3559 0001750  69.9615 290.1700 13.10369107310219
ONEWEB-0033             
1 45142U 20008M   26182.94205569 -.00000014  00000+0 -76854-4 0  9995
2 45142  87.8821  33.3373 0001986 100.2798 259.8554 13.10375083310143
ONEWEB-0035             
1 45143U 20008N   26182.88620672  .00000463  00000+0  12900-2 0  9991
2 45143  87.8817  33.3414 0001889  88.0951 272.0393 13.10371410309866
ONEWEB-0036             
1 45144U 20008P   26182.48208524  .00000186  00000+0  49599-3 0  9993
2 45144  87.8838  33.4373 0001820  78.7456 281.3876 13.10370844310238
ONEWEB-0038             
1 45145U 20008Q   26182.81785353 -.00000069  00000+0 -23012-3 0  9995
2 45145  87.8895  18.1658 0000911 155.8774 204.2397 13.11418571312244
ONEWEB-0039             
1 45146U 20008R   26182.94545928  .00000385  00000+0  10678-2 0  9994
2 45146  87.8823  33.3270 0001547  68.9840 291.1452 13.10376199310095
ONEWEB-0040             
1 45147U 20008S   26182.48050701  .00000110  00000+0  27879-3 0  9992
2 45147  87.8821  33.4304 0002027  78.5279 281.6076 13.10374726309739
ONEWEB-0043             
1 45149U 20008U   26182.86412812 -.00000157  00000+0 -48687-3 0  9994
2 45149  87.8828  33.3427 0001584  69.2542 290.8755 13.10371247310104
ONEWEB-0044             
1 45150U 20008V   26182.81654099  .00000464  00000+0  12926-2 0  9991
2 45150  87.8823  33.3531 0001813  80.7468 279.3865 13.10371863310396
ONEWEB-0045             
1 45151U 20008W   26182.81262649 -.00000460  00000+0 -13331-2 0  9997
2 45151  87.8889  18.1488 0001706  86.5795 273.5528 13.11417488312321
ONEWEB-0047             
1 45152U 20008X   26182.88593309  .00000690  00000+0  19415-2 0  9997
2 45152  87.8826  33.3386 0001716  91.8184 268.3140 13.10371114310123
ONEWEB-0048             
1 45153U 20008Y   26182.88098426  .00000768  00000+0  21626-2 0  9991
2 45153  87.8819  33.3594 0001783  87.6851 272.4480 13.10375870309736
ONEWEB-0049             
1 45154U 20008Z   26182.88422822  .00000720  00000+0  20257-2 0  9990
2 45154  87.8815  33.3481 0002100  77.0402 283.0960 13.10376069309953
ONEWEB-0051             
1 45155U 20008AA  26182.81093932 -.00000407  00000+0 -11847-2 0  9999
2 45155  87.8881  18.1556 0001830  87.8500 272.2837 13.11418807313000
ONEWEB-0052             
1 45156U 20008AB  26182.82854611 -.00000315  00000+0 -93762-3 0  9995
2 45156  87.8818  33.3463 0002002  75.9568 284.1782 13.10370519309856
ONEWEB-0053             
1 45157U 20008AC  26182.86060148 -.00000110  00000+0 -35118-3 0  9998
2 45157  87.8818  33.3602 0001789  70.1197 290.0123 13.10374551309831
ONEWEB-0054             
1 45158U 20008AD  26182.81992687  .00000288  00000+0  78917-3 0  9994
2 45158  87.8825  33.3527 0001889  84.9811 275.1532 13.10371488309949
ONEWEB-0056             
1 45159U 20008AE  26182.94361374  .00000289  00000+0  79185-3 0  9991
2 45159  87.8829  33.3214 0002092  86.4030 273.7337 13.10374450310114
ONEWEB-0057             
1 45160U 20008AF  26182.88451495  .00000730  00000+0  20542-2 0  9993
2 45160  87.8822  33.3451 0001890  69.1662 290.9668 13.10371129310271
ONEWEB-0058             
1 45161U 20008AG  26182.87131706  .00000463  00000+0  12900-2 0  9995
2 45161  87.8819  33.3528 0001694  91.7863 268.3459 13.10375961310342
ONEWEB-0059             
1 45162U 20008AH  26182.94390503  .00000240  00000+0  65177-3 0  9994
2 45162  87.8819  33.3375 0001629  78.2785 281.8525 13.10372749310259
ONEWEB-0062             
1 45163U 20008AJ  26182.81468018  .00000490  00000+0  13675-2 0  9990
2 45163  87.8824  33.3517 0001857  96.1534 263.9805 13.10371124310100
ONEWEB-0065             
1 45164U 20008AK  26182.84860444 -.00000628  00000+0 -18367-2 0  9991
2 45164  87.8824  33.3530 0001957  77.4507 282.6840 13.10375338309802
STARLINK-1143           
1 45179U 20012B   26182.80277577  .00363506  67602-4  67406-3 0  9997
2 45179  53.0299 117.8598 0004500  89.5629 270.5916 16.00584507353954
STARLINK-1202           
1 45183U 20012F   26182.81992549  .00037999  00000+0  10488-2 0  9991
2 45183  53.1523 227.2619 0004151 348.2697  11.8209 15.36733985352451
